[{"OBJECT_NAME":"LATINSAT B","OBJECT_ID":"2002-058B","EPOCH":"2026-03-09T16:34:18.291936","MEAN_MOTION":14.76864114,"ECCENTRICITY":0.0085493,"INCLINATION":64.5543,"RA_OF_ASC_NODE":195.5711,"ARG_OF_PERICENTER":289.4538,"MEAN_ANOMALY":69.7343,"EPHEMERIS_TYPE":0,"CLASSIFICATION_TYPE":"U","NORAD_CAT_ID":27606,"ELEMENT_SET_NO":999,"REV_AT_EPOCH":24740,"BSTAR":0.00017955575,"MEAN_MOTION_DOT":1.192e-5,"MEAN_MOTION_DDOT":0},{"OBJECT_NAME":"FASTSAT-HSV01 (USA 220)","OBJECT_ID":"2010-062D","EPOCH":"2026-03-09T22:39:04.749408","MEAN_MOTION":14.82022092,"ECCENTRICITY":0.00182404,"INCLINATION":71.9738,"RA_OF_ASC_NODE":20.4219,"ARG_OF_PERICENTER":309.5001,"MEAN_ANOMALY":50.455,"EPHEMERIS_TYPE":0,"CLASSIFICATION_TYPE":"U","NORAD_CAT_ID":37225,"ELEMENT_SET_NO":999,"REV_AT_EPOCH":9942,"BSTAR":0.00013175884,"MEAN_MOTION_DOT":9.91e-6,"MEAN_MOTION_DDOT":0}]
